{
  "type": "FeatureCollection",
  "name": "constraints",
  "metadata": {
    "boundary_status": "provisional_constraint",
    "official_boundary": false,
    "note": "All geometry is conceptual; replace with official data when available"
  },
  "features": [
    {
      "type": "Feature",
      "id": "CST-001",
      "properties": {
        "id": "CST-001",
        "layer": "CONSTRAINTS",
        "name_zh": "京张铁路遗址保护廊道",
        "type": "heritage",
        "source_type": "public_knowledge",
        "confidence": "high",
        "geometry_role": "constraint"
      },
      "geometry": {
        "type": "LineString",
        "coordinates": [
          [
            116.338,
            39.998
          ],
          [
            116.338,
            39.97
          ],
          [
            116.338,
            39.94
          ]
        ]
      }
    },
    {
      "type": "Feature",
      "id": "CST-002",
      "properties": {
        "id": "CST-002",
        "layer": "CONSTRAINTS",
        "name_zh": "高校校园保留区",
        "type": "existing_campus",
        "source_type": "public_knowledge",
        "confidence": "high",
        "geometry_role": "constraint"
      },
      "geometry": {
        "type": "Point",
        "coordinates": [
          116.35,
          39.98
        ]
      }
    }
  ]
}